#dP2021  8  6  6  0  0.00000000      96 __u+U ITR00 EXT  IAC
## 2169 453600.00000000   900.00000000 59432 0.2500000000000
+  115   C07C08C09C10C11C12C13C14C16C19C20C21C22C23C24C25C26
+        C27C28C29C30C32C33C34C35C36C37C38C40C41C42C43C44C45
+        C46E01E02E03E04E05E07E08E09E11E12E13E14E15E18E19E21
+        E24E25E26E27E30E31E33E36G01G02G03G04G05G06G07G08G09
+        G10G11G12G13G14G15G16G17G18G19G20G21G22G23G24G25G26
+        G27G28G29G30G31G32J01J02J03R01R02R03R04R05R07R08R09
+        R11R12R13R14R15R16R17R18R19R20R21R22R24  0  0  0  0
++         0  0  0  0  0  0  0  0  0  0  0  0  0  0  0  0  0
++         0  0  0  0  0  0  0  0  0  0  0  0  0  0  0  0  0
++         0  0  0  0  0  0  0  0  0  0  0  0  0  0  0  0  0
++         0  0  0  0  0  0  0  0  0  0  0  0  0  0  0  0  0
++         0  0  0  0  0  0  0  0  0  0  0  0  0  0  0  0  0
++         0  0  0  0  0  0  0  0  0  0  0  0  0  0  0  0  0
++         0  0  0  0  0  0  0  0  0  0  0  0  0  0  0  0  0
%c M  cc GPS ccc cccc cccc cccc cccc ccccc ccccc ccccc ccccc
%c cc cc ccc ccc cccc cccc cccc cccc ccccc ccccc ccccc ccccc
%f  0.0000000  0.000000000  0.00000000000  0.000000000000000
%f  0.0000000  0.000000000  0.00000000000  0.000000000000000
%i    0    0    0    0      0      0      0      0         0
%i    0    0    0    0      0      0      0      0         0
/* IAC                                ULTRA-RAPID PREDICTION
/* S/V CLOCKS ARE ALIGNED TO GNSS TIME                      
/* G:C1WC2W R:C1PC2P E:C1XC5X C:C2IC6I J:C1CC2S             
/* PCV:IGS14_2163 OL/AL:FES2004  NONE     YN ORB:CoN CLK:CoN
*  2021 08 07  4 30  0.00000000
PC07 -11922.352333  37302.902303 -14554.382453     37.965118
PC08  -7736.075362  20256.141795  36293.974810   -916.542779
PC09  -8616.100586  27202.866351 -30876.964934     -7.781227
PC10  -2446.718966  41675.926305  -3276.319056    -11.012566
PC11  -3657.934291  16672.076908  22122.442715    502.366884
PC12 -21018.363728  15044.569532  10510.417693    789.240959
PC13   6314.114128  27713.877435  31329.665666    364.544438
PC14  -1750.206157  27570.996749  -3684.893597    740.989230
PC16 -20849.805048  27946.724309 -23740.428551   -874.570649
PC19  -5011.931004 -24385.873940  12651.896079    937.576267
PC20   6988.821181 -26737.568986  -3991.233849   -825.471824
PC21 -15485.501519  13095.601653  19171.123041   -939.138783
PC22 -14492.780401  -7869.351498  22514.723284   -949.734951
PC23  23640.910167  13176.439023   6808.901662   -963.052488
PC24  -3977.196940  16975.398320 -21790.279743   -964.145322
PC25  15188.301394  21111.175641 -10143.290290   -874.143882
PC26 -18633.478616   3919.911537 -20392.677082    867.977608
PC27  25771.528771 -10566.934854  -1636.416089    576.844672
PC28  23318.578643   2627.296147  15110.555285    -41.494195
PC29  -7688.452723 -13987.301657 -22900.533699    429.941039
PC30  13003.237318 -17959.614032 -16942.677352    476.634850
PC32  15391.175197 -13219.730284 -19154.187117   -929.060277
PC33   5097.636691  24384.971553 -12552.368894   -953.131102
PC34 -12288.907377  18014.726906  17409.873552   -610.721880
PC35 -23211.732686  -2147.227282 -15371.497791   -151.388525
PC36 -14351.070930 -21514.947273  10519.239888   -740.483935
PC37  19328.867556  -2621.869691  19987.071643   -861.823300
PC38  -6938.338312  23206.502892  34531.800599    166.900224
PC40  -8240.457247  40842.645473  -5883.927445    187.915335
PC41  14436.634712   8181.025818 -22391.221325   -967.212248
PC42  -7509.199072  26433.849834   4839.374440   -929.094423
PC43   7049.931137  14386.939293  22837.648131   -856.363373
PC44 -25490.727827  11308.466179   1383.725818    328.307184
PC45 -23644.681879 -13064.218415  -6953.897088    513.932983
PC46   2827.051726 -17485.098955  21571.047870    143.731904
PE01   8440.843573 -18060.688056  21888.183680  -1166.330555
PE02  -8332.477107  18187.495072 -21813.832491    238.194070
PE03 -18249.659747  23278.760907    836.009466   -460.969330
PE04   3926.239786 -24391.752177  16313.631235   -829.643180
PE05 -22095.536914   8473.646438  17780.841202   -259.205296
PE07  13026.473405  11075.111647 -24155.910521   -570.782981
PE08  -3574.759188  24215.879526 -16630.072706   5958.135979
PE09 -13078.821719 -10786.111567  24269.521329   5574.609972
PE11 -23818.071188 -11491.274170 -13321.533068   5613.261035
PE12  -3911.530200 -16436.872907 -24312.648920   5072.908847
PE13  23540.191054  11573.504948  13712.577846    419.975118
PE14  15870.746214 -24598.351583 -10769.491714  -1526.802623
PE15   3989.231200  16344.455500  24352.779440    799.337281
PE18 -19511.894968  16285.038294    689.342350  -1674.213070
PE19  19378.892386 -22163.887792  -3068.292353    345.979964
PE21  17870.546839   1371.232932  23562.115270   -680.559244
PE24 -17032.402113 -21624.239155 -10867.564720  -1049.255734
PE25 -17923.728672  -1624.280732 -23488.772775   -542.435982
PE26  29021.828697   -499.123465  -5831.123928   1490.627983
PE27  17425.553175  20880.544155  11697.191545    -92.413286
PE30   5810.987305  27914.822935  -7963.115757   2722.206513
PE31  -6721.246956 -27973.766320   6984.218382   -484.114899
PE33  17860.937002 -11478.614535 -20626.878708   -466.610071
PE36 -29182.394071    -12.691020   4957.241365   -244.940144
PG01 -19947.148338 -14084.598752 -11129.667504    605.125502
PG02  -3111.945945  15150.688341  22247.803528   -624.708671
PG03 -11987.412322 -21497.887164  10024.504328   -245.478423
PG04 -11667.682810  -9946.169632  21698.715482   -203.598607
PG05   6228.392551  25697.678131    980.150832    -50.319917
PG06 -15671.986861   8814.266929  19623.609207     51.914776
PG07 -25927.228596  -6290.893063  -2483.051017    219.609849
PG08  -1879.042618 -17333.545706 -19955.965785    -31.672374
PG09 -19554.687883   1253.384324  17878.453476   -358.075113
PG10  13081.824260  -8389.954017 -21384.437969   -177.424552
PG11  -4690.716764  14499.483337  21737.203670     30.587466
PG12  10294.337424  22374.555343   9864.698151    -79.367048
PG13  -7262.877771  19319.376929 -16772.038363    167.948332
PG14 -13537.028227   8727.196700 -21115.146775     29.524737
PG15   4720.727973  17342.206348 -19830.445103   -130.148237
PG16    764.039486 -25508.536267   6196.831154   -369.598238
PG17 -22294.385539  12495.377128  -6809.080313    485.553881
PG18  25640.815645   4410.557227  -5572.368037    334.991872
PG19 -20613.466430  16547.742938   1249.564557     36.348080
PG20   -720.929584  23459.969982  12646.476945    519.788257
PG21 -14305.367813 -14945.450122 -16246.727230    135.794919
PG22 -10445.714654 -24406.685348   2749.178526   -544.485960
PG23  15990.648667   4359.177169 -20791.577391     74.190144
PG24  16636.405361  15025.366919 -14798.576480    200.601144
PG25  15402.650196  12896.093348  17244.806237    186.848462
PG26   6818.091928 -19669.350260  16277.143038    119.708561
PG27   8242.651960 -20820.619151 -14171.792501   -174.556968
PG28 -10726.204783  15157.398939 -18519.411328    524.371307
PG29  18268.716007   1686.241578  19180.070408   -392.300880
PG30 -22620.522458   3111.288043 -13692.591576   -459.446134
PG31  14503.480228 -10009.934529  19914.600838   -132.889295
PG32  20994.866241 -15413.981188  -4591.372380      9.439099
PJ01 -30943.970911  26572.371193  15519.958768   -433.433256
PJ02 -20494.102292  21763.809001 -25198.837315     -1.346611
PJ03 -29919.185134  27821.297288  15308.097274     -0.607423
PR01 -12945.316035   7225.888875  20753.360023     83.447540
PR02 -10697.306699  22705.471432   4763.631384    488.802005
PR03  -1734.315861  22238.830851 -12380.685601     40.847049
PR04   7845.288437   9186.891986 -22440.990826     99.116594
PR05  13161.912391  -8843.316621 -19963.342075     76.707022
PR07   1272.005274 -21861.105691  13080.527202    -41.749001
PR08  -8047.515342  -9118.934484  22472.651552    -60.253738
PR09   3031.425533 -12900.298446  21831.738732      6.805974
PR11 -18379.018450 -16625.911574  -6058.302192     45.904927
PR12 -15146.058967  -2797.239661 -20295.872224    251.589659
PR13  -3533.228556  12088.625911 -22189.182197    -58.795822
PR14  10822.826555  20488.203975 -10625.074250     67.349153
PR15  18266.934949  16503.745953   6695.337457    102.235671
PR16  14830.847257   1402.934237  20726.475035    -19.143327
PR17   2201.507537  10325.918927  23222.281275    447.646649
PR18  18534.626131   4534.850294  16911.803005     86.058215
PR19  25264.474624  -2560.107351   2469.764796   -154.464418
PR20  16878.101608  -9781.295965 -16414.001622    -53.728509
PR21  -3472.289629 -10004.199606 -23210.784462   -229.643664
PR22 -19344.487716  -4124.582894 -16180.984070   -126.579022
PR24 -16049.869268  10556.384622  16779.810695     53.521698
EOF
